{
  "type": "FeatureCollection",
  "features": [
    {
      "type": "Feature",
      "properties": {
        "zone_id": "RZ001",
        "risk_score": 8.7,
        "tier": "Immediate",
        "population": 3200,
        "hazard_type": "flood"
      },
      "geometry": {
        "type": "Polygon",
        "coordinates": [
          [
            [
              91.0371,
              26.4521
            ],
            [
              91.03683,
              26.45733
            ],
            [
              91.03601,
              26.4625
            ],
            [
              91.03465,
              26.46755
            ],
            [
              91.03278,
              26.47244
            ],
            [
              91.0304,
              26.4771
            ],
            [
              91.02755,
              26.48149
            ],
            [
              91.02426,
              26.48556
            ],
            [
              91.02056,
              26.48926
            ],
            [
              91.01649,
              26.49255
            ],
            [
              91.0121,
              26.4954
            ],
            [
              91.00744,
              26.49778
            ],
            [
              91.00255,
              26.49965
            ],
            [
              90.9975,
              26.50101
            ],
            [
              90.99233,
              26.50183
            ],
            [
              90.9871,
              26.5021
            ],
            [
              90.98187,
              26.50183
            ],
            [
              90.9767,
              26.50101
            ],
            [
              90.97165,
              26.49965
            ],
            [
              90.96676,
              26.49778
            ],
            [
              90.9621,
              26.4954
            ],
            [
              90.95771,
              26.49255
            ],
            [
              90.95364,
              26.48926
            ],
            [
              90.94994,
              26.48556
            ],
            [
              90.94665,
              26.48149
            ],
            [
              90.9438,
              26.4771
            ],
            [
              90.94142,
              26.47244
            ],
            [
              90.93955,
              26.46755
            ],
            [
              90.93819,
              26.4625
            ],
            [
              90.93737,
              26.45733
            ],
            [
              90.9371,
              26.4521
            ],
            [
              90.93737,
              26.44687
            ],
            [
              90.93819,
              26.4417
            ],
            [
              90.93955,
              26.43665
            ],
            [
              90.94142,
              26.43176
            ],
            [
              90.9438,
              26.4271
            ],
            [
              90.94665,
              26.42271
            ],
            [
              90.94994,
              26.41864
            ],
            [
              90.95364,
              26.41494
            ],
            [
              90.95771,
              26.41165
            ],
            [
              90.9621,
              26.4088
            ],
            [
              90.96676,
              26.40642
            ],
            [
              90.97165,
              26.40455
            ],
            [
              90.9767,
              26.40319
            ],
            [
              90.98187,
              26.40237
            ],
            [
              90.9871,
              26.4021
            ],
            [
              90.99233,
              26.40237
            ],
            [
              90.9975,
              26.40319
            ],
            [
              91.00255,
              26.40455
            ],
            [
              91.00744,
              26.40642
            ],
            [
              91.0121,
              26.4088
            ],
            [
              91.01649,
              26.41165
            ],
            [
              91.02056,
              26.41494
            ],
            [
              91.02426,
              26.41864
            ],
            [
              91.02755,
              26.42271
            ],
            [
              91.0304,
              26.4271
            ],
            [
              91.03278,
              26.43176
            ],
            [
              91.03465,
              26.43665
            ],
            [
              91.03601,
              26.4417
            ],
            [
              91.03683,
              26.44687
            ],
            [
              91.0371,
              26.4521
            ]
          ]
        ]
      }
    },
    {
      "type": "Feature",
      "properties": {
        "zone_id": "RZ002",
        "risk_score": 6.2,
        "tier": "Short-term",
        "population": 1500,
        "hazard_type": "flood"
      },
      "geometry": {
        "type": "Polygon",
        "coordinates": [
          [
            [
              91.14,
              26.5
            ],
            [
              91.13978,
              26.50418
            ],
            [
              91.13913,
              26.50832
            ],
            [
              91.13804,
              26.51236
            ],
            [
              91.13654,
              26.51627
            ],
            [
              91.13464,
              26.52
            ],
            [
              91.13236,
              26.52351
            ],
            [
              91.12973,
              26.52677
            ],
            [
              91.12677,
              26.52973
            ],
            [
              91.12351,
              26.53236
            ],
            [
              91.12,
              26.53464
            ],
            [
              91.11627,
              26.53654
            ],
            [
              91.11236,
              26.53804
            ],
            [
              91.10832,
              26.53913
            ],
            [
              91.10418,
              26.53978
            ],
            [
              91.1,
              26.54
            ],
            [
              91.09582,
              26.53978
            ],
            [
              91.09168,
              26.53913
            ],
            [
              91.08764,
              26.53804
            ],
            [
              91.08373,
              26.53654
            ],
            [
              91.08,
              26.53464
            ],
            [
              91.07649,
              26.53236
            ],
            [
              91.07323,
              26.52973
            ],
            [
              91.07027,
              26.52677
            ],
            [
              91.06764,
              26.52351
            ],
            [
              91.06536,
              26.52
            ],
            [
              91.06346,
              26.51627
            ],
            [
              91.06196,
              26.51236
            ],
            [
              91.06087,
              26.50832
            ],
            [
              91.06022,
              26.50418
            ],
            [
              91.06,
              26.5
            ],
            [
              91.06022,
              26.49582
            ],
            [
              91.06087,
              26.49168
            ],
            [
              91.06196,
              26.48764
            ],
            [
              91.06346,
              26.48373
            ],
            [
              91.06536,
              26.48
            ],
            [
              91.06764,
              26.47649
            ],
            [
              91.07027,
              26.47323
            ],
            [
              91.07323,
              26.47027
            ],
            [
              91.07649,
              26.46764
            ],
            [
              91.08,
              26.46536
            ],
            [
              91.08373,
              26.46346
            ],
            [
              91.08764,
              26.46196
            ],
            [
              91.09168,
              26.46087
            ],
            [
              91.09582,
              26.46022
            ],
            [
              91.1,
              26.46
            ],
            [
              91.10418,
              26.46022
            ],
            [
              91.10832,
              26.46087
            ],
            [
              91.11236,
              26.46196
            ],
            [
              91.11627,
              26.46346
            ],
            [
              91.12,
              26.46536
            ],
            [
              91.12351,
              26.46764
            ],
            [
              91.12677,
              26.47027
            ],
            [
              91.12973,
              26.47323
            ],
            [
              91.13236,
              26.47649
            ],
            [
              91.13464,
              26.48
            ],
            [
              91.13654,
              26.48373
            ],
            [
              91.13804,
              26.48764
            ],
            [
              91.13913,
              26.49168
            ],
            [
              91.13978,
              26.49582
            ],
            [
              91.14,
              26.5
            ]
          ]
        ]
      }
    },
    {
      "type": "Feature",
      "properties": {
        "zone_id": "RZ003",
        "risk_score": 9.1,
        "tier": "Immediate",
        "population": 4200,
        "hazard_type": "landslide"
      },
      "geometry": {
        "type": "Polygon",
        "coordinates": [
          [
            [
              91.75,
              26.2
            ],
            [
              91.74973,
              26.20523
            ],
            [
              91.74891,
              26.2104
            ],
            [
              91.74755,
              26.21545
            ],
            [
              91.74568,
              26.22034
            ],
            [
              91.7433,
              26.225
            ],
            [
              91.74045,
              26.22939
            ],
            [
              91.73716,
              26.23346
            ],
            [
              91.73346,
              26.23716
            ],
            [
              91.72939,
              26.24045
            ],
            [
              91.725,
              26.2433
            ],
            [
              91.72034,
              26.24568
            ],
            [
              91.71545,
              26.24755
            ],
            [
              91.7104,
              26.24891
            ],
            [
              91.70523,
              26.24973
            ],
            [
              91.7,
              26.25
            ],
            [
              91.69477,
              26.24973
            ],
            [
              91.6896,
              26.24891
            ],
            [
              91.68455,
              26.24755
            ],
            [
              91.67966,
              26.24568
            ],
            [
              91.675,
              26.2433
            ],
            [
              91.67061,
              26.24045
            ],
            [
              91.66654,
              26.23716
            ],
            [
              91.66284,
              26.23346
            ],
            [
              91.65955,
              26.22939
            ],
            [
              91.6567,
              26.225
            ],
            [
              91.65432,
              26.22034
            ],
            [
              91.65245,
              26.21545
            ],
            [
              91.65109,
              26.2104
            ],
            [
              91.65027,
              26.20523
            ],
            [
              91.65,
              26.2
            ],
            [
              91.65027,
              26.19477
            ],
            [
              91.65109,
              26.1896
            ],
            [
              91.65245,
              26.18455
            ],
            [
              91.65432,
              26.17966
            ],
            [
              91.6567,
              26.175
            ],
            [
              91.65955,
              26.17061
            ],
            [
              91.66284,
              26.16654
            ],
            [
              91.66654,
              26.16284
            ],
            [
              91.67061,
              26.15955
            ],
            [
              91.675,
              26.1567
            ],
            [
              91.67966,
              26.15432
            ],
            [
              91.68455,
              26.15245
            ],
            [
              91.6896,
              26.15109
            ],
            [
              91.69477,
              26.15027
            ],
            [
              91.7,
              26.15
            ],
            [
              91.70523,
              26.15027
            ],
            [
              91.7104,
              26.15109
            ],
            [
              91.71545,
              26.15245
            ],
            [
              91.72034,
              26.15432
            ],
            [
              91.725,
              26.1567
            ],
            [
              91.72939,
              26.15955
            ],
            [
              91.73346,
              26.16284
            ],
            [
              91.73716,
              26.16654
            ],
            [
              91.74045,
              26.17061
            ],
            [
              91.7433,
              26.175
            ],
            [
              91.74568,
              26.17966
            ],
            [
              91.74755,
              26.18455
            ],
            [
              91.74891,
              26.1896
            ],
            [
              91.74973,
              26.19477
            ],
            [
              91.75,
              26.2
            ]
          ]
        ]
      }
    },
    {
      "type": "Feature",
      "properties": {
        "zone_id": "RZ004",
        "risk_score": 5.8,
        "tier": "Medium-term",
        "population": 850,
        "hazard_type": "landslide"
      },
      "geometry": {
        "type": "Polygon",
        "coordinates": [
          [
            [
              91.835,
              26.15
            ],
            [
              91.83481,
              26.15366
            ],
            [
              91.83424,
              26.15728
            ],
            [
              91.83329,
              26.16082
            ],
            [
              91.83197,
              26.16424
            ],
            [
              91.83031,
              26.1675
            ],
            [
              91.82832,
              26.17057
            ],
            [
              91.82601,
              26.17342
            ],
            [
              91.82342,
              26.17601
            ],
            [
              91.82057,
              26.17832
            ],
            [
              91.8175,
              26.18031
            ],
            [
              91.81424,
              26.18197
            ],
            [
              91.81082,
              26.18329
            ],
            [
              91.80728,
              26.18424
            ],
            [
              91.80366,
              26.18481
            ],
            [
              91.8,
              26.185
            ],
            [
              91.79634,
              26.18481
            ],
            [
              91.79272,
              26.18424
            ],
            [
              91.78918,
              26.18329
            ],
            [
              91.78576,
              26.18197
            ],
            [
              91.7825,
              26.18031
            ],
            [
              91.77943,
              26.17832
            ],
            [
              91.77658,
              26.17601
            ],
            [
              91.77399,
              26.17342
            ],
            [
              91.77168,
              26.17057
            ],
            [
              91.76969,
              26.1675
            ],
            [
              91.76803,
              26.16424
            ],
            [
              91.76671,
              26.16082
            ],
            [
              91.76576,
              26.15728
            ],
            [
              91.76519,
              26.15366
            ],
            [
              91.765,
              26.15
            ],
            [
              91.76519,
              26.14634
            ],
            [
              91.76576,
              26.14272
            ],
            [
              91.76671,
              26.13918
            ],
            [
              91.76803,
              26.13576
            ],
            [
              91.76969,
              26.1325
            ],
            [
              91.77168,
              26.12943
            ],
            [
              91.77399,
              26.12658
            ],
            [
              91.77658,
              26.12399
            ],
            [
              91.77943,
              26.12168
            ],
            [
              91.7825,
              26.11969
            ],
            [
              91.78576,
              26.11803
            ],
            [
              91.78918,
              26.11671
            ],
            [
              91.79272,
              26.11576
            ],
            [
              91.79634,
              26.11519
            ],
            [
              91.8,
              26.115
            ],
            [
              91.80366,
              26.11519
            ],
            [
              91.80728,
              26.11576
            ],
            [
              91.81082,
              26.11671
            ],
            [
              91.81424,
              26.11803
            ],
            [
              91.8175,
              26.11969
            ],
            [
              91.82057,
              26.12168
            ],
            [
              91.82342,
              26.12399
            ],
            [
              91.82601,
              26.12658
            ],
            [
              91.82832,
              26.12943
            ],
            [
              91.83031,
              26.1325
            ],
            [
              91.83197,
              26.13576
            ],
            [
              91.83329,
              26.13918
            ],
            [
              91.83424,
              26.14272
            ],
            [
              91.83481,
              26.14634
            ],
            [
              91.835,
              26.15
            ]
          ]
        ]
      }
    }
  ]
}